STARLINK-2171
1 47754U 21017AJ  26090.83335647  .00230715  00000+0  14004-2 0  9992
2 47754  53.0422  58.5184 0001765 171.6789  72.5670 15.76321831  6004
